     2.11           N: GPS NAV DATA                         RINEX VERSION / TYPE
RTKCONV 2.4.2       A. Blais            20150307 150801 UTC PGM / RUN BY / DATE 
log: C:\Users\blais\Downloads\COM44_150205_094639.ubx       COMMENT             
format: u-blox                                              COMMENT             
Antenne sur le toit du bâtiment F                           COMMENT             
    1.7695E-08 -7.4506E-09 -5.9605E-08  1.1921E-07          ION ALPHA           
    1.2902E+05 -1.1469E+05  6.5536E+04 -3.2768E+05          ION BETA            
     .279396772385E-08  .444089209850E-14  -458752       38 DELTA-UTC: A0,A1,T,W
    16                                                      LEAP SECONDS        
                                                            END OF HEADER       
23 15  2  5 10  0  0.0 -.866479240358E-04 -.261479726760E-11  .000000000000E+00
     .630000000000E+02 -.304375000000E+02  .506771109051E-08 -.258865887900E+01
    -.168755650520E-05  .974669307470E-02  .478699803352E-05  .515366197205E+04
     .381600000000E+06 -.353902578354E-07  .217108210295E+01 -.169500708580E-06
     .949043709766E+00  .281531250000E+03 -.271365977366E+01 -.828070206734E-08
    -.268582616115E-09  .100000000000E+01  .183000000000E+04  .000000000000E+00
     .240000000000E+01  .000000000000E+00 -.200234353542E-07  .630000000000E+02
     .380856000000E+06  .400000000000E+01
 3 15  2  5 10  0  0.0  .191834289581E-03  .219415596803E-10  .000000000000E+00
     .990000000000E+02  .498437500000E+02  .465305096111E-08 -.118017178728E+01
     .253133475780E-05  .938293640502E-03  .785291194916E-05  .515375352097E+04
     .381600000000E+06 -.204890966415E-07  .111680735443E+01  .186264514923E-08
     .959222396789E+00  .225625000000E+03 -.299430591508E+01 -.807819363205E-08
     .432875173846E-09  .100000000000E+01  .183000000000E+04  .000000000000E+00
     .240000000000E+01  .000000000000E+00  .139698386192E-08  .990000000000E+02
     .380856000000E+06  .400000000000E+01
20 15  2  5 10  0  0.0  .286394730210E-03  .409272615798E-11  .000000000000E+00
     .103000000000E+03  .523125000000E+02  .545344144344E-08  .509126958953E-01
     .282935798168E-05  .583199772518E-02  .806339085102E-05  .515576992989E+04
     .381600000000E+06 -.763684511185E-07  .104773226726E+01  .949949026108E-07
     .926293070499E+00  .203875000000E+03  .123553877907E+01 -.855142762986E-08
     .435375277985E-09  .100000000000E+01  .183000000000E+04  .000000000000E+00
     .240000000000E+01  .000000000000E+00 -.838190317154E-08  .103000000000E+03
     .380856000000E+06  .400000000000E+01
 9 15  2  5 10  0  0.0 -.774427317083E-04 -.119371179608E-10  .000000000000E+00
     .320000000000E+02 -.291562500000E+02  .493663420206E-08 -.171886995431E+01
    -.155530869961E-05  .337732839398E-03  .470131635666E-05  .515365164375E+04
     .381600000000E+06 -.186264514923E-08  .216144685927E+01  .186264514923E-08
     .957981453121E+00  .286812500000E+03  .222403412274E+01 -.830463163553E-08
    -.328227957726E-09  .100000000000E+01  .183000000000E+04  .000000000000E+00
     .240000000000E+01  .000000000000E+00  .465661287308E-09  .320000000000E+02
     .380856000000E+06  .400000000000E+01
17 15  2  5 10  0  0.0 -.154150184244E-03 -.216004991671E-11  .000000000000E+00
     .640000000000E+02 -.621875000000E+02  .471769651100E-08 -.133320367866E+01
    -.299140810966E-05  .100575970719E-01  .295042991638E-05  .515370848465E+04
     .381600000000E+06  .119209289551E-06 -.932595804347E+00  .165775418282E-06
     .971166270025E+00  .325937500000E+03 -.203910460464E+01 -.830927468607E-08
    -.197151069276E-09  .100000000000E+01  .183000000000E+04  .000000000000E+00
     .240000000000E+01  .000000000000E+00 -.107102096081E-07  .640000000000E+02
     .380856000000E+06  .400000000000E+01
 1 15  2  5 10  0  0.0 -.936631113291E-05  .454747350886E-12  .000000000000E+00
     .440000000000E+02 -.668125000000E+02  .425910598029E-08  .274812024267E+01
    -.347383320332E-05  .385207741056E-02  .110547989607E-04  .515367818832E+04
     .381600000000E+06 -.223517417908E-07  .766617642416E-01 -.298023223877E-07
     .962300960132E+00  .166593750000E+03  .412404728667E+00 -.775353725166E-08
    -.782175437889E-10  .100000000000E+01  .183000000000E+04  .000000000000E+00
     .240000000000E+01  .000000000000E+00  .558793544769E-08  .440000000000E+02
     .380856000000E+06  .400000000000E+01
 6 15  2  5 10  0  0.0  .726766884327E-04  .114823706099E-10  .000000000000E+00
     .780000000000E+02 -.770937500000E+02  .430517932800E-08 -.885944581502E+00
    -.381469726562E-05  .382778816856E-03  .115633010864E-04  .515369930267E+04
     .381600000000E+06  .558793544769E-07  .681352325288E-01  .745058059692E-08
     .962201222766E+00  .156468750000E+03  .254188853220E+01 -.788711424425E-08
    -.123576576032E-09  .100000000000E+01  .183000000000E+04  .000000000000E+00
     .240000000000E+01  .000000000000E+00  .465661287308E-08  .780000000000E+02
     .380856000000E+06  .400000000000E+01
 4 15  2  5 10  0  0.0 -.672088935971E-05 -.568434188608E-12  .000000000000E+00
     .600000000000E+02 -.755625000000E+02  .470698177897E-08  .256515722441E+01
    -.401586294174E-05  .110243321396E-01  .107865780592E-04  .515374046898E+04
     .381600000000E+06  .111758708954E-07  .569408839078E-01 -.191852450371E-06
     .939930849264E+00  .157281250000E+03  .105038072537E+01 -.791354391658E-08
    -.102504269714E-09  .100000000000E+01  .183000000000E+04  .000000000000E+00
     .240000000000E+01  .000000000000E+00 -.651925802231E-08  .600000000000E+02
     .380856000000E+06  .400000000000E+01
11 15  2  5 10  0  0.0 -.555775128305E-03 -.261479726760E-11  .000000000000E+00
     .920000000000E+02 -.110750000000E+03  .591310344735E-08  .225695013647E+01
    -.589527189732E-05  .156116297003E-01  .772811472416E-05  .515373225784E+04
     .381600000000E+06  .141561031342E-06 -.265779970825E+00 -.214204192162E-06
     .892712902196E+00  .191125000000E+03  .137890647562E+01 -.849999691613E-08
    -.291440711104E-09  .100000000000E+01  .183000000000E+04  .000000000000E+00
     .240000000000E+01  .000000000000E+00 -.121071934700E-07  .920000000000E+02
     .380856000000E+06  .400000000000E+01
32 15  2  5  9 59 44.0 -.231018289924E-03  .898126018001E-11  .000000000000E+00
     .180000000000E+02  .503125000000E+02  .486520265522E-08  .266168766175E+01
     .247545540333E-05  .113471344812E-01  .745989382267E-05  .515358170319E+04
     .381584000000E+06 -.242143869400E-06  .120010553097E+01  .409781932831E-07
     .946887314389E+00  .228437500000E+03  .150695615592E-01 -.810676625078E-08
     .374658463172E-09  .100000000000E+01  .183000000000E+04  .000000000000E+00
     .240000000000E+01  .000000000000E+00 -.372529029846E-08  .180000000000E+02
     .380856000000E+06  .400000000000E+01
10 15  2  5 10  0  0.0 -.161948613822E-03 -.170530256582E-11  .000000000000E+00
     .920000000000E+02  .533750000000E+02  .524664711534E-08 -.234776472320E+00
     .294111669064E-05  .145476874895E-01  .752508640289E-05  .515365728378E+04
     .381600000000E+06  .111758708954E-07  .112698021027E+01  .217929482460E-06
     .941281971144E+00  .223125000000E+03  .919794081801E+00 -.864107422114E-08
     .441446959466E-09  .100000000000E+01  .183000000000E+04  .000000000000E+00
     .240000000000E+01  .000000000000E+00 -.325962901115E-08  .920000000000E+02
     .380856000000E+06  .400000000000E+01
31 15  2  5 10  0  0.0  .323990359902E-03 -.795807864051E-12  .000000000000E+00
     .950000000000E+02  .115937500000E+02  .377265714631E-08  .207999834076E+01
     .806525349617E-06  .830214400776E-02  .118371099234E-04  .515372845268E+04
     .381600000000E+06 -.149011611938E-07 -.303924680529E+01  .726431608200E-07
     .976613520102E+00  .158312500000E+03 -.556123142270E+00 -.749816947171E-08
    -.328585115460E-09  .100000000000E+01  .183000000000E+04  .000000000000E+00
     .240000000000E+01  .000000000000E+00 -.135041773319E-07  .950000000000E+02
     .380856000000E+06  .400000000000E+01
 7 15  2  5 10  0  0.0  .437677837908E-03  .318323145621E-11  .000000000000E+00
     .420000000000E+02  .139687500000E+02  .395409327528E-08  .218844457062E+01
     .756233930588E-06  .799887324683E-02  .117830932140E-04  .515374196625E+04
     .381600000000E+06 -.171363353729E-06 -.304650255712E+01  .260770320892E-07
     .971706449600E+00  .158125000000E+03 -.275395866973E+01 -.765603319023E-08
    -.246438836595E-09  .100000000000E+01  .183000000000E+04  .000000000000E+00
     .240000000000E+01  .000000000000E+00 -.111758708954E-07  .420000000000E+02
     .381366000000E+06  .400000000000E+01
23 15  2  5 12  0  0.0 -.866670161486E-04 -.261479726760E-11  .000000000000E+00
     .860000000000E+02 -.290937500000E+02  .506628245957E-08 -.153852197819E+01
    -.164844095707E-05  .974684208632E-02  .442937016487E-05  .515366094589E+04
     .388800000000E+06  .800937414169E-07  .217102220084E+01 -.163912773132E-06
     .949041963041E+00  .285625000000E+03 -.271360441537E+01 -.831463205208E-08
    -.245010205659E-09  .100000000000E+01  .183000000000E+04  .000000000000E+00
     .240000000000E+01  .000000000000E+00 -.200234353542E-07  .860000000000E+02
     .381606000000E+06  .400000000000E+01
 3 15  2  5 12  0  0.0  .191992148757E-03  .219415596803E-10  .000000000000E+00
     .100000000000E+03  .487187500000E+02  .465483674978E-08 -.129921906763E+00
     .247173011303E-05  .938087119721E-03  .799447298050E-05  .515375333595E+04
     .388800000000E+06 -.223517417908E-07  .111674919320E+01 -.745058059692E-08
     .959225555229E+00  .222593750000E+03 -.299442292365E+01 -.807105047736E-08
     .436803908922E-09  .100000000000E+01  .183000000000E+04  .000000000000E+00
     .340000000000E+01  .000000000000E+00  .139698386192E-08  .100000000000E+03
     .381606000000E+06  .400000000000E+01
